LEMUR-2-GREENBERG       
1 42837U 17042N   26068.46200528  .00019778  00000+0  72539-3 0  9997
2 42837  97.3781 249.8007 0009157   4.0119 356.1192 15.27971352473146
STARLINK-32753          
1 62481U 24254V   26068.21523886  .00030014  00000+0  10959-2 0  9998
2 62481  42.9998  18.7697 0001683 279.1962  80.8700 15.27576831 67580
